NOAA 17                 
1 27453U 02032A   26062.99310506  .00000338  00000+0  16014-3 0  9995
2 27453  98.8532  27.5628 0010721 299.8719  60.1394 14.26185403231995
NOAA 18                 
1 28654U 05018A   26062.95055465  .00000091  00000+0  70981-4 0  9992
2 28654  98.8166 144.1380 0015350  90.6657 269.6275 14.13709561 71443
NOAA 19                 
1 33591U 09005A   26062.93073004  .00000074  00000+0  63329-4 0  9994
2 33591  98.9618 133.6918 0013111 331.8930  28.1533 14.13455546879610
SUOMI NPP               
1 37849U 11061A   26062.96347964  .00000121  00000+0  78397-4 0  9995
2 37849  98.7864   4.6119 0000428 286.0376  74.0753 14.19541660743515
NOAA 20 (JPSS-1)        
1 43013U 17073A   26062.90763584  .00000102  00000+0  69397-4 0  9997
2 43013  98.7686   3.3525 0000934 145.4890 214.6347 14.19534320429534
NOAA 21 (JPSS-2)        
1 54234U 22150A   26062.94240751  .00000118  00000+0  77028-4 0  9993
2 54234  98.7549   3.2743 0002521 116.7706 243.3728 14.19550369171617
