[{"OBJECT_NAME":"NOAA 17","OBJECT_ID":"2002-032A","EPOCH":"2026-03-03T23:50:04.277184","MEAN_MOTION":14.26185403,"ECCENTRICITY":0.00107219,"INCLINATION":98.8532,"RA_OF_ASC_NODE":27.5628,"ARG_OF_PERICENTER":299.8719,"MEAN_ANOMALY":60.1394,"EPHEMERIS_TYPE":0,"CLASSIFICATION_TYPE":"U","NORAD_CAT_ID":27453,"ELEMENT_SET_NO":999,"REV_AT_EPOCH":23199,"BSTAR":0.00016014096,"MEAN_MOTION_DOT":3.38e-6,"MEAN_MOTION_DDOT":0},{"OBJECT_NAME":"NOAA 18","OBJECT_ID":"2005-018A","EPOCH":"2026-03-03T22:48:47.921760","MEAN_MOTION":14.13709561,"ECCENTRICITY":0.00153505,"INCLINATION":98.8166,"RA_OF_ASC_NODE":144.138,"ARG_OF_PERICENTER":90.6657,"MEAN_ANOMALY":269.6275,"EPHEMERIS_TYPE":0,"CLASSIFICATION_TYPE":"U","NORAD_CAT_ID":28654,"ELEMENT_SET_NO":999,"REV_AT_EPOCH":7144,"BSTAR":7.0981125e-5,"MEAN_MOTION_DOT":9.1e-7,"MEAN_MOTION_DDOT":0},{"OBJECT_NAME":"NOAA 19","OBJECT_ID":"2009-005A","EPOCH":"2026-03-03T22:20:15.075456","MEAN_MOTION":14.13455546,"ECCENTRICITY":0.00131114,"INCLINATION":98.9618,"RA_OF_ASC_NODE":133.6918,"ARG_OF_PERICENTER":331.893,"MEAN_ANOMALY":28.1533,"EPHEMERIS_TYPE":0,"CLASSIFICATION_TYPE":"U","NORAD_CAT_ID":33591,"ELEMENT_SET_NO":999,"REV_AT_EPOCH":87961,"BSTAR":6.3329321e-5,"MEAN_MOTION_DOT":7.4e-7,"MEAN_MOTION_DDOT":0},{"OBJECT_NAME":"SUOMI NPP","OBJECT_ID":"2011-061A","EPOCH":"2026-03-03T23:07:24.640896","MEAN_MOTION":14.1954166,"ECCENTRICITY":4.281e-5,"INCLINATION":98.7864,"RA_OF_ASC_NODE":4.6119,"ARG_OF_PERICENTER":286.0376,"MEAN_ANOMALY":74.0753,"EPHEMERIS_TYPE":0,"CLASSIFICATION_TYPE":"U","NORAD_CAT_ID":37849,"ELEMENT_SET_NO":999,"REV_AT_EPOCH":74351,"BSTAR":7.8396587e-5,"MEAN_MOTION_DOT":1.21e-6,"MEAN_MOTION_DDOT":0},{"OBJECT_NAME":"NOAA 20 (JPSS-1)","OBJECT_ID":"2017-073A","EPOCH":"2026-03-03T21:46:59.736576","MEAN_MOTION":14.1953432,"ECCENTRICITY":9.346e-5,"INCLINATION":98.7686,"RA_OF_ASC_NODE":3.3525,"ARG_OF_PERICENTER":145.489,"MEAN_ANOMALY":214.6347,"EPHEMERIS_TYPE":0,"CLASSIFICATION_TYPE":"U","NORAD_CAT_ID":43013,"ELEMENT_SET_NO":999,"REV_AT_EPOCH":42953,"BSTAR":6.9397212e-5,"MEAN_MOTION_DOT":1.02e-6,"MEAN_MOTION_DDOT":0},{"OBJECT_NAME":"NOAA 21 (JPSS-2)","OBJECT_ID":"2022-150A","EPOCH":"2026-03-03T22:37:04.008864","MEAN_MOTION":14.19550369,"ECCENTRICITY":0.00025218,"INCLINATION":98.7549,"RA_OF_ASC_NODE":3.2743,"ARG_OF_PERICENTER":116.7706,"MEAN_ANOMALY":243.3728,"EPHEMERIS_TYPE":0,"CLASSIFICATION_TYPE":"U","NORAD_CAT_ID":54234,"ELEMENT_SET_NO":999,"REV_AT_EPOCH":17161,"BSTAR":7.7027529e-5,"MEAN_MOTION_DOT":1.18e-6,"MEAN_MOTION_DDOT":0}]
